IRIDIUM 119             
1 42959U 17061E   25123.93433518  .00000453  00000+0  15470-3 0  9994
2 42959  86.4029 196.2532 0002067  97.7019 262.4411 14.34219960396159
IRIDIUM 107             
1 42960U 17061F   25123.74405874  .00000450  00000+0  15378-3 0  9993
2 42960  86.4030 196.3515 0002175 108.3135 251.8298 14.34219082396131
IRIDIUM 132             
1 42961U 17061G   25123.68063367  .00000086  00000+0  23624-4 0  9993
2 42961  86.4029 196.3604 0002258  99.5655 260.5796 14.34218131396122
IRIDIUM 136             
1 42962U 17061H   25123.71234631  .00000022  00000+0  86736-6 0  9997
2 42962  86.4031 196.3519 0002066  98.3470 261.7960 14.34217784396141
IRIDIUM 139             
1 42963U 17061J   25123.71868938  .00000091  00000+0  25439-4 0  9998
2 42963  86.4031 196.4044 0002224 102.9972 257.1472 14.34218254396152
IRIDIUM 125             
1 42964U 17061K   25123.77577145  .00000034  00000+0  50032-5 0  9997
2 42964  86.4033 196.4341 0001687 104.2403 255.8980 14.34217860396174
IRIDIUM 135             
1 43070U 17083A   25123.88943848  .00000206  00000+0  66501-4 0  9997
2 43070  86.3945 133.1369 0002521  87.8012 272.3472 14.34219872385489
IRIDIUM 138             
1 43071U 17083B   25124.12410926 -.00000023  00000+0 -15229-4 0  9992
2 43071  86.3936 132.7152 0001755  81.1742 278.9652 14.34217453385508
